#aV2023  8 18  0  0  0.00000000     288 DD+AD WGS84 FIT  NGA
## 2275 432000.00000000   300.00000000 60174 0.0000000000000
+   32     1  2  3  4  5  6  7  8  9 10 11 12 13 14 15 16 17
+         18 19 20 21 22 23 24 25 26 27 28 29 30 31 32  0  0
+          0  0  0  0  0  0  0  0  0  0  0  0  0  0  0  0  0
+          0  0  0  0  0  0  0  0  0  0  0  0  0  0  0  0  0
+          0  0  0  0  0  0  0  0  0  0  0  0  0  0  0  0  0
++         2  2  2  2  2  2  2  2  2  2  2  2  2  2  2  2  2
++         2  2  2  2  2  2  2  2  2  2  2  2  2  2  2  0  0
++         0  0  0  0  0  0  0  0  0  0  0  0  0  0  0  0  0
++         0  0  0  0  0  0  0  0  0  0  0  0  0  0  0  0  0
++         0  0  0  0  0  0  0  0  0  0  0  0  0  0  0  0  0
%c cc cc ccc ccc cccc cccc cccc cccc ccccc ccccc ccccc ccccc
%c cc cc ccc ccc cccc cccc cccc cccc ccccc ccccc ccccc ccccc
%f  0.0000000  0.000000000  0.00000000000  0.000000000000000
%f  0.0000000  0.000000000  0.00000000000  0.000000000000000
%i    0    0    0    0      0      0      0      0         0
%i    0    0    0    0      0      0      0      0         0
/*      NGA, ST. LOUIS,MO.                                  
/*   EPHEMERIS COMPUTED FROM 2 DAYS OF DATA                 
/*   EPOCHA v8 SMOOTHER                                     
/*   G2139 IERS2010 SATIGS SATAPC                           
*  2023  8 18  8  0  0.00000000
P  1  13818.442261 -18353.538914  12680.446758    168.182678                    
V  1  -2741.283220  16622.908063  26667.033742     -0.013518                    
P  2  15094.742514 -12315.498796  18479.018310   -564.194993                    
V  2  -2534.609558  22391.538097  17636.554036      0.041770                    
P  3  20947.704418 -12771.936186 -10171.991039   -181.517390                    
V  3  12798.599580  -1394.487792  28622.427818      0.184900                    
P  4  10700.297271 -10727.516471 -21802.819397    129.106684                    
V  4  19074.681927  20086.775108   -638.318149      0.114695                    
P  5 -25720.238341   4387.257076  -5442.305015   -139.250884                    
V  5   5578.449090  -4365.860741 -30823.865400     -0.014638                    
P  6  -7197.227068 -18192.334447 -17858.963113    564.650714                    
V  6   7151.334403 -21648.795837  19194.136037     -0.053566                    
P  7   5067.388546 -25734.886896   2342.520161     92.542436                    
V  7   4036.601986  -1475.495187 -31651.831177     -0.107509                    
P  8  18744.685859   -660.814425  18882.856868   -137.752303                    
V  8  16682.516620  17309.249740 -15501.353729     -0.018954                    
P  9   1407.324855 -17800.153505 -19726.501542    -83.638401                    
V  9  18948.241715  16209.032287 -13372.149291      0.098410                    
P 10   8826.074227  12741.613936  21788.031510    -49.748476                    
V 10 -26098.938888   7442.558204   5960.320596     -0.015210                    
P 11 -14482.911575  -4288.275392 -21834.717020   -326.189640                    
V 11   8308.621069 -26463.912092   -360.021715     -0.174474                    
P 12 -23756.136485   9687.867151  -6987.624241   -414.260232                    
V 12  -8868.569804   -865.597240  30210.684242     -0.044922                    
P 13 -19875.790222  -9032.925211  15085.313604    561.532676                    
V 13 -10378.507148 -16465.148897 -23033.772165      0.047135                    
P 14  -4934.374931 -14748.298649  21557.843669    157.577253                    
V 14  26580.196293  -6509.426252   1468.593907      0.116382                    
P 15 -18212.225522   3654.322497  18598.385716     68.742603                    
V 15 -18767.682110 -16035.722979 -14604.632062      0.036196                    
P 16  25177.027018   1965.233340  -9239.524179   -466.706393                    
V 16 -10618.452339   4004.003899 -28610.085177      0.050219                    
P 17 -11929.732469 -22196.020676   8643.046622    722.877827                    
V 17   8582.363847   6272.776349  29537.110931      0.004990                    
P 18  -4204.212311  25768.810058   4332.884948   -386.553657                    
V 18  -3899.465020   4636.349900 -31529.891581     -0.133053                    
P 19 -16936.828329 -20696.350714    -62.105556    359.231544                    
V 19   1788.890240  -1236.144471  31792.020518      0.051541                    
P 20 -21701.716014  -1747.295418 -15046.054817    416.617641                    
V 20  16439.814857 -10349.367891 -22640.798630     -0.020290                    
P 21  15548.284979  -8879.477523  19841.620194    150.537511                    
V 21  -2568.555503  24265.100058  14112.393911     -0.006281                    
P 22 -12338.864030 -12259.691498  20459.376376    139.495927                    
V 22  24452.234704  -5424.556048  12032.774507     -0.075254                    
P 23  -5337.793478  16095.400001  20401.240189     56.538709                    
V 23 -25057.548859   6632.926007 -11954.561497      0.047476                    
P 24 -14512.323577  14728.155331  16061.422605   -293.194222                    
V 24    817.892763 -21495.602406  20411.357172     -0.114251                    
P 25 -12744.911095  16203.726878 -16912.289126    462.813419                    
V 25 -20749.839205   3871.822697  19975.721407      0.021498                    
P 26  18726.341807   7296.163877 -17651.164517    232.477984                    
V 26 -20273.055044   9097.765055 -17519.010668     -0.015237                    
P 27  21778.722687  10892.566486  10832.039627    -24.047366                    
V 27   8547.426555  11256.682044 -27453.605047     -0.067124                    
P 28   7183.358440  19744.561967 -16270.656526     75.086958                    
V 28  -6346.699520  19704.909549  21135.365339     -0.036062                    
P 29  -3077.585778  17167.846598 -20049.157708   -607.969897                    
V 29 -17363.966369 -18480.350478 -13291.332708     -0.006897                    
P 30  -1941.418843 -24010.520750  11013.899018   -495.507007                    
V 30   6784.762584 -12619.011771 -26869.527265      0.031023                    
P 31  12881.968728   9665.591052 -21235.379018   -222.024236                    
V 31  -8129.604700  25385.471347   7097.168877     -0.006211                    
P 32  16157.999277  20646.013530   5068.862950   -542.623552                    
V 32  -6209.816781  -2465.828926  30755.164319     -0.067788                    
EOF
